[{"OBJECT_NAME":"STARLINK-4263","OBJECT_ID":"2022-076AA","EPOCH":"2026-03-09T08:46:20.429472","MEAN_MOTION":15.08835366,"ECCENTRICITY":0.0001237,"INCLINATION":53.2165,"RA_OF_ASC_NODE":95.3058,"ARG_OF_PERICENTER":86.3331,"MEAN_ANOMALY":273.7803,"EPHEMERIS_TYPE":0,"CLASSIFICATION_TYPE":"U","NORAD_CAT_ID":53010,"ELEMENT_SET_NO":999,"REV_AT_EPOCH":20280,"BSTAR":2.0560941e-5,"MEAN_MOTION_DOT":3.9e-7,"MEAN_MOTION_DDOT":0},{"OBJECT_NAME":"YUNYAO-1 43","OBJECT_ID":"2025-059A","EPOCH":"2026-03-09T23:54:24.516576","MEAN_MOTION":15.10329109,"ECCENTRICITY":0.00157026,"INCLINATION":97.608,"RA_OF_ASC_NODE":250.9377,"ARG_OF_PERICENTER":132.1084,"MEAN_ANOMALY":228.1483,"EPHEMERIS_TYPE":0,"CLASSIFICATION_TYPE":"U","NORAD_CAT_ID":63344,"ELEMENT_SET_NO":999,"REV_AT_EPOCH":5332,"BSTAR":0.00032498885,"MEAN_MOTION_DOT":5.279e-5,"MEAN_MOTION_DDOT":0}]
